QIANFAN-183             
1 69401U 26125A   26184.58644337 -.01780145  00000+0 -10597+1 0  9996
2 69401  88.9949 278.5931 0020921 120.7077 239.6173 14.11539561  4025
QIANFAN-184             
1 69402U 26125B   26185.14268467  .00000106  00000+0  45748-4 0  9995
2 69402  88.9955 278.5277 0016671 118.0116 242.2761 14.16890389  4102
QIANFAN-185             
1 69403U 26125C   26184.72652379 -.01728620  00000+0 -10494+1 0  9995
2 69403  88.9950 278.5770 0020594 134.2826 226.0053 14.10343129  4049
QIANFAN-186             
1 69404U 26125D   26185.13173571  .00000113  00000+0  48567-4 0  9997
2 69404  88.9955 278.5262 0016020 119.4364 240.8426 14.17441134  4109
QIANFAN-187             
1 69405U 26125E   26185.11928969  .00000114  00000+0  48364-4 0  9991
2 69405  88.9955 278.5241 0016550 120.4057 239.8771 14.18352050  4106
QIANFAN-188             
1 69406U 26125F   26184.75034297 -.01751111  00000+0 -10004+1 0  9992
2 69406  88.9949 278.5617 0016500 133.7679 226.4876 14.13756828  4057
QIANFAN-189             
1 69407U 26125G   26184.68716875 -.01775348  00000+0 -10288+1 0  9996
2 69407  88.9950 278.5712 0017539 134.4028 225.8598 14.13027428  4045
QIANFAN-190             
1 69408U 26125H   26184.61129327  .00000103  00000+0  42051-4 0  9994
2 69408  88.9956 278.5782 0016548 124.0953 236.1809 14.19225964  4030
QIANFAN-191             
1 69409U 26125J   26185.02101975  .00000122  00000+0  50453-4 0  9996
2 69409  88.9955 278.5279 0015974 121.9534 238.3211 14.20097724  4094
QIANFAN-192             
1 69410U 26125K   26184.73164381 -.01881300  00000+0 -10385+1 0  9999
2 69410  88.9949 278.5593 0014206 120.3483 239.9112 14.15265765  4050
QIANFAN-193             
1 69411U 26125L   26184.72355811 -.01782720  00000+0 -98848+0 0  9994
2 69411  88.9948 278.5579 0014243 119.6852 240.5756 14.15469180  4055
QIANFAN-194             
1 69412U 26125M   26184.71743791 -.01787525  00000+0 -98309+0 0  9992
2 69412  88.9949 278.5571 0012582 123.6881 236.5508 14.15932954  4043
QIANFAN-195             
1 69413U 26125N   26185.13521295  .00000125  00000+0  50136-4 0  9995
2 69413  88.9955 278.5079 0017246 124.1985 236.0844 14.21805773  4118
QIANFAN-196             
1 69414U 26125P   26184.70549739 -.01940579  00000+0 -10368+1 0  9999
2 69414  88.9950 278.5549 0012015 119.6623 240.5764 14.17163152  4050
QIANFAN-197             
1 69415U 26125Q   26184.69988295 -.01948408  00000+0 -10289+1 0  9993
2 69415  88.9950 278.5546 0009891 123.7173 236.4961 14.17819096  4049
QIANFAN-198             
1 69416U 26125R   26184.70991083 -.02181219  00000+0 -12381+1 0  9990
2 69416  88.9948 278.5559 0013460 132.6988 227.5335 14.14379448  4057
QIANFAN-199             
1 69417U 26125S   26184.68892636 -.01944387  00000+0 -10024+1 0  9996
2 69417  88.9950 278.5530 0014762 137.1737 223.0605 14.19063517  4051
QIANFAN-200             
1 69418U 26125T   26184.67455018  .00000469  00000+0  21485-3 0  9992
2 69418  88.9956 278.5690 0016609 121.6863 238.5949 14.19645954  4047
STARLINK-37537          
1 69420U 26126A   26185.13549856  .00233597  00000+0  15240-2 0  9993
2 69420  97.2830  45.9424 0004526  57.2434 302.9267 15.75190685  5418
STARLINK-37585          
1 69421U 26126B   26185.56958289  .00569602  00000+0  35054-2 0  9999
2 69421  97.2831  46.4247 0001935 150.9547 209.1826 15.75619237  5481
STARLINK-37573          
1 69422U 26126C   26185.07512858  .00241599  00000+0  15677-2 0  9995
2 69422  97.2836  45.8726 0001127 272.2469  87.8667 15.75300896  5400
STARLINK-37820          
1 69423U 26126D   26185.34407418  .00326288  00000+0  20869-2 0  9999
2 69423  97.2836  46.2725 0001395  59.7678 300.3725 15.75400535  5456
STARLINK-37822          
1 69424U 26126E   26185.55087879  .00353106  00000+0  22573-2 0  9991
2 69424  97.2849  46.4505 0002064  84.5545 275.5956 15.75336934  5485
STARLINK-37836          
1 69425U 26126F   26185.34125244  .00252853  00000+0  16421-2 0  9990
2 69425  97.2847  46.2772 0002270  79.2590 280.8931 15.75249665  5451
STARLINK-37850          
1 69426U 26126G   26185.60029050  .00436458  00000+0  27662-2 0  9992
2 69426  97.2858  46.5366 0000882 116.2702 243.8654 15.75304899  5542
STARLINK-37823          
1 69427U 26126H   26185.36667253  .00299331  00000+0  19312-2 0  9999
2 69427  97.2834  46.2422 0005085  83.6661 276.5183 15.75264356  5451
STARLINK-37834          
1 69428U 26126J   26185.12101772  .00387282  00000+0  24692-2 0  9993
2 69428  97.2837  45.9634 0001009  66.7407 293.3964 15.75303160  5415
STARLINK-37857          
1 69429U 26126K   26185.55440964  .00253823  00000+0  16378-2 0  9995
2 69429  97.2829  46.4452 0001948 117.6242 242.5221 15.75396256  5483
STARLINK-37866          
1 69430U 26126L   26185.08502532  .00243047  00000+0  15776-2 0  9993
2 69430  97.2797  46.0114 0001251 106.5397 253.6006 15.75290516  5469
