OBJECT_NAME,OBJECT_ID,EPOCH,MEAN_MOTION,ECCENTRICITY,INCLINATION,RA_OF_ASC_NODE,ARG_OF_PERICENTER,MEAN_ANOMALY,EPHEMERIS_TYPE,CLASSIFICATION_TYPE,NORAD_CAT_ID,ELEMENT_SET_NO,REV_AT_EPOCH,BSTAR,MEAN_MOTION_DOT,MEAN_MOTION_DDOT
QIANFAN-183,2026-125A,2026-07-03T14:04:28.707168,14.11539561,.00209211,88.9949,278.5931,120.7077,239.6173,0,U,69401,999,402,-.1059703E+1,-.1780145E-1,0
QIANFAN-184,2026-125B,2026-07-04T03:25:27.955488,14.16890389,.00166715,88.9955,278.5277,118.0116,242.2761,0,U,69402,999,410,.45747764E-4,.106E-5,0
QIANFAN-185,2026-125C,2026-07-03T17:26:11.655456,14.10343129,.00205949,88.9950,278.5770,134.2826,226.0053,0,U,69403,999,404,-.10494392E+1,-.172862E-1,0
QIANFAN-186,2026-125D,2026-07-04T03:09:41.965344,14.17441134,.00160207,88.9955,278.5262,119.4364,240.8426,0,U,69404,999,410,.48566618E-4,.113E-5,0
QIANFAN-187,2026-125E,2026-07-04T02:51:46.629216,14.18352050,.00165502,88.9955,278.5241,120.4057,239.8771,0,U,69405,999,410,.48364382E-4,.114E-5,0
QIANFAN-188,2026-125F,2026-07-03T18:00:29.632608,14.13756828,.00165007,88.9949,278.5617,133.7679,226.4876,0,U,69406,999,405,-.10003671E+1,-.1751111E-1,0
QIANFAN-189,2026-125G,2026-07-03T16:29:31.380000,14.13027428,.00175397,88.9950,278.5712,134.4028,225.8598,0,U,69407,999,404,-.10288368E+1,-.1775348E-1,0
QIANFAN-190,2026-125H,2026-07-03T14:40:15.738528,14.19225964,.00165482,88.9956,278.5782,124.0953,236.1809,0,U,69408,999,403,.42051267E-4,.103E-5,0
QIANFAN-191,2026-125J,2026-07-04T00:30:16.106400,14.20097724,.0015974,88.9955,278.5279,121.9534,238.3211,0,U,69409,999,409,.50452614E-4,.122E-5,0
QIANFAN-192,2026-125K,2026-07-03T17:33:34.025184,14.15265765,.0014206,88.9949,278.5593,120.3483,239.9112,0,U,69410,999,405,-.10385408E+1,-.18813E-1,0
QIANFAN-193,2026-125L,2026-07-03T17:21:55.420704,14.15469180,.00142435,88.9948,278.5579,119.6852,240.5756,0,U,69411,999,405,-.98847586E+0,-.178272E-1,0
QIANFAN-194,2026-125M,2026-07-03T17:13:06.635424,14.15932954,.00125827,88.9949,278.5571,123.6881,236.5508,0,U,69412,999,404,-.98309479E+0,-.1787525E-1,0
QIANFAN-195,2026-125N,2026-07-04T03:14:42.398880,14.21805773,.00172468,88.9955,278.5079,124.1985,236.0844,0,U,69413,999,411,.50135727E-4,.125E-5,0
QIANFAN-196,2026-125P,2026-07-03T16:55:54.974496,14.17163152,.00120156,88.9950,278.5549,119.6623,240.5764,0,U,69414,999,405,-.10368223E+1,-.1940579E-1,0
QIANFAN-197,2026-125Q,2026-07-03T16:47:49.886880,14.17819096,.0009891,88.9950,278.5546,123.7173,236.4961,0,U,69415,999,404,-.10289099E+1,-.1948408E-1,0
QIANFAN-198,2026-125R,2026-07-03T17:02:16.295712,14.14379448,.00134609,88.9948,278.5559,132.6988,227.5335,0,U,69416,999,405,-.12380721E+1,-.2181219E-1,0
QIANFAN-199,2026-125S,2026-07-03T16:32:03.237504,14.19063517,.00147625,88.9950,278.5530,137.1737,223.0605,0,U,69417,999,405,-.10024467E+1,-.1944387E-1,0
QIANFAN-200,2026-125T,2026-07-03T16:11:21.135552,14.19645954,.00166098,88.9956,278.5690,121.6863,238.5949,0,U,69418,999,404,.21484751E-3,.469E-5,0
STARLINK-37537,2026-126A,2026-07-04T03:15:07.075584,15.75190685,.00045261,97.2830,45.9424,57.2434,302.9267,0,U,69420,999,541,.15239888E-2,.233597E-2,0
STARLINK-37585,2026-126B,2026-07-04T13:40:11.961696,15.75619237,.00019353,97.2831,46.4247,150.9547,209.1826,0,U,69421,999,548,.35054023E-2,.569602E-2,0
STARLINK-37573,2026-126C,2026-07-04T01:48:11.109312,15.75300896,.00011273,97.2836,45.8726,272.2469,87.8667,0,U,69422,999,540,.15677278E-2,.241599E-2,0
STARLINK-37820,2026-126D,2026-07-04T08:15:28.009152,15.75400535,.00013957,97.2836,46.2725,59.7678,300.3725,0,U,69423,999,545,.20868521E-2,.326288E-2,0
STARLINK-37822,2026-126E,2026-07-04T13:13:15.927456,15.75336934,.00020642,97.2849,46.4505,84.5545,275.5956,0,U,69424,999,548,.22573496E-2,.353106E-2,0
STARLINK-37836,2026-126F,2026-07-04T08:11:24.210816,15.75249665,.00022701,97.2847,46.2772,79.2590,280.8931,0,U,69425,999,545,.16421218E-2,.252853E-2,0
STARLINK-37850,2026-126G,2026-07-04T14:24:25.099200,15.75304899,.00008821,97.2858,46.5366,116.2702,243.8654,0,U,69426,999,554,.27661811E-2,.436458E-2,0
STARLINK-37823,2026-126H,2026-07-04T08:48:00.506592,15.75264356,.0005085,97.2834,46.2422,83.6661,276.5183,0,U,69427,999,545,.19312434E-2,.299331E-2,0
STARLINK-37834,2026-126J,2026-07-04T02:54:15.931008,15.75303160,.00010091,97.2837,45.9634,66.7407,293.3964,0,U,69428,999,541,.24692351E-2,.387282E-2,0
STARLINK-37857,2026-126K,2026-07-04T13:18:20.992896,15.75396256,.00019487,97.2829,46.4452,117.6242,242.5221,0,U,69429,999,548,.16378448E-2,.253823E-2,0
STARLINK-37866,2026-126L,2026-07-04T02:02:26.187648,15.75290516,.00012513,97.2797,46.0114,106.5397,253.6006,0,U,69430,999,546,.15775569E-2,.243047E-2,0
